OBJECT_NAME,OBJECT_ID,EPOCH,MEAN_MOTION,ECCENTRICITY,INCLINATION,RA_OF_ASC_NODE,ARG_OF_PERICENTER,MEAN_ANOMALY,EPHEMERIS_TYPE,CLASSIFICATION_TYPE,NORAD_CAT_ID,ELEMENT_SET_NO,REV_AT_EPOCH,BSTAR,MEAN_MOTION_DOT,MEAN_MOTION_DDOT
JILIN-1 GAOFEN 03D15,2022-019R,2026-05-11T21:07:19.612704,15.91080265,.0005733,97.3660,227.2989,234.4599,125.6141,0,U,51839,999,23433,.81337E-3,.255103E-2,.26095E-4
JILIN-1 GAOFEN 03D12,2022-019T,2026-05-11T19:02:51.277056,15.92079936,.0005761,97.3602,227.1463,221.4895,138.5942,0,U,51841,999,23432,.79841E-3,.263589E-2,.28062E-4
2022-023F,2022-023F,2026-05-11T20:18:03.116160,15.17821613,.0127771,63.4485,37.0238,343.9800,15.7287,0,U,51951,999,23219,.56725E-3,.14066E-3,0
MERIDIAN 10,2022-030A,2026-05-09T02:10:29.497152,2.00616584,.67733795,62.6773,144.9880,272.8849,17.7301,0,U,52145,999,3024,0,.246E-5,0
OMNI-L1,2022-033A,2026-05-11T19:16:54.949728,14.82610632,.0006249,97.8393,211.6907,54.8018,305.3780,0,U,52157,999,22206,.15333E-3,.1182E-4,0
ENMAP,2022-033C,2026-05-11T19:17:27.430944,14.74958074,.0001483,97.9782,214.5695,84.1067,276.0311,0,U,52159,999,22129,.10923E-3,.684E-5,0
ARCSAT-1,2022-033E,2026-05-11T18:54:41.206752,15.52707757,.0003962,97.2736,223.5488,349.1608,10.9559,0,U,52161,999,23005,.1406E-3,.8579E-4,0
GLOBAL-18,2022-034B,2026-05-11T20:19:16.470624,15.44748722,.0005575,52.9814,70.1040,124.9513,235.2016,0,U,52196,999,23134,.30378E-3,.14034E-3,0
GAOFEN-3 03,2022-035A,2026-05-11T21:00:55.627776,14.42218336,.0001039,98.4080,140.9820,72.4343,287.6960,0,U,52200,999,21561,-.26139E-4,-.13E-5,0
DAQI-1,2022-039A,2026-05-11T19:59:26.691648,14.57654907,.0004274,98.1465,71.4402,26.8673,333.2747,0,U,52257,999,21664,.26502E-4,.76E-6,0
BRO-6,2022-047AE,2026-05-11T20:10:28.329888,15.48363151,.0005112,97.3394,222.2647,186.9458,173.1722,0,U,52422,999,22552,.42147E-3,.22254E-3,0
JILIN-1 GAOFEN 3D27,2022-048B,2026-05-11T20:33:23.095584,15.68144549,.0005467,97.5671,242.7413,172.8484,187.2856,0,U,52444,999,22377,.56778E-3,.63438E-3,0
JILIN-1 GAOFEN 3D28,2022-048C,2026-05-11T20:22:40.704672,15.70198224,.0004202,97.5610,242.7701,188.5200,171.5991,0,U,52445,999,22381,.58986E-3,.7175E-3,0
VIGORIDE-3,2022-057AE,2026-05-11T20:23:03.949728,15.26890729,.0007171,97.6549,270.8840,247.8748,112.1729,0,U,52760,999,21961,.13633E-3,.3524E-4,0
ION SCV-006,2022-057AF,2026-05-11T08:56:57.556032,15.44426617,.00164941,97.6052,278.2667,245.0567,114.8968,0,U,52761,999,22043,.14218367E-3,.6509E-4,0
SHERPA-AC1,2022-057AH,2026-05-11T20:17:15.456192,15.35741049,.0006986,97.6635,279.5832,213.0868,146.9939,0,U,52763,999,22012,.14474E-3,.4947E-4,0
OMNI-L2,2022-057AR,2026-05-11T18:44:49.771104,14.81270211,.0008357,97.4732,196.5848,86.8836,273.3334,0,U,52771,999,21500,.10848E-3,.799E-5,0
STEP CUBE LAB-II,2022-065D,2026-05-11T19:49:08.211936,14.63243569,.0009524,98.2175,275.8506,133.1854,227.0145,0,U,52897,999,20618,.11038E-3,.521E-5,0
RANDEV,2022-065E,2026-05-11T20:04:29.072640,14.63628968,.0008818,98.2164,276.1967,133.0175,227.1767,0,U,52898,999,20593,.12739E-3,.614E-5,0
SNUGLITE-II,2022-065F,2026-05-11T16:16:45.577056,14.64277129,.0008497,98.2153,276.5852,132.7383,227.4535,0,U,52899,999,20565,.1229E-3,.6E-5,0
MIMAN,2022-065G,2026-05-11T15:12:33.782112,14.61801866,.0008589,98.2210,274.3113,134.2653,225.9254,0,U,52900,999,20510,.81052E-4,.357E-5,0
STARLINK-4362,2022-077A,2026-05-11T15:31:46.936992,15.05670993,.0001898,97.5036,311.9592,85.1194,275.0249,0,U,53043,999,21038,-.25519E-3,-.3742E-4,0
LARES-2,2022-080A,2026-05-07T03:52:33.796992,6.38965197,.0005357,70.1704,319.3995,343.8104,16.2342,0,U,53105,999,8904,0,-.8E-7,0
GREENCUBE (IO-117),2022-080E,2026-05-11T10:53:54.781728,6.42583318,.00088758,70.1441,311.0256,298.1354,61.8409,0,U,53109,999,8970,0,-.3E-7,0
STARLINK-4410,2022-084R,2026-05-11T20:00:01.999008,15.15747560,.0002096,97.6033,192.4380,50.0808,310.9094,0,U,53204,999,566,-.12403E-2,-.23624E-3,0
COSMOS 2558,2022-089A,2026-05-11T20:27:14.570208,15.68604643,.0002614,97.2245,234.6363,176.6646,183.4633,0,U,53323,999,21212,.49859E-3,.56668E-3,0
TECMS,2022-090A,2026-05-11T18:53:23.768160,15.21428870,.0001854,97.3152,200.9223,349.3792,10.7405,0,U,53346,999,20927,.10266E-3,.2237E-4,0
DONGPO 02,2022-098J,2026-05-11T20:58:59.234880,15.68309587,.0002572,97.5464,260.1289,124.0879,236.0626,0,U,53452,999,20909,.5268E-3,.59181E-3,0
