JILIN-1 GAOFEN 03D15    
1 51839U 22019R   26131.88008811  .00255103  26095-4  81337-3 0  9994
2 51839  97.3660 227.2989 0005733 234.4599 125.6141 15.91080265234334
JILIN-1 GAOFEN 03D12    
1 51841U 22019T   26131.79364904  .00263589  28062-4  79841-3 0  9995
2 51841  97.3602 227.1463 0005761 221.4895 138.5942 15.92079936234320
2022-023F               
1 51951U 22023F   26131.84586940  .00014066  00000+0  56725-3 0  9991
2 51951  63.4485  37.0238 0127771 343.9800  15.7287 15.17821613232190
MERIDIAN 10             
1 52145U 22030A   26129.09061918  .00000246  00000+0  00000+0 0  9998
2 52145  62.6773 144.9880 6773379 272.8849  17.7301  2.00616584 30246
OMNI-L1                 
1 52157U 22033A   26131.80341377  .00001182  00000+0  15333-3 0  9995
2 52157  97.8393 211.6907 0006249  54.8018 305.3780 14.82610632222065
ENMAP                   
1 52159U 22033C   26131.80378971  .00000684  00000+0  10923-3 0  9993
2 52159  97.9782 214.5695 0001483  84.1067 276.0311 14.74958074221295
ARCSAT-1                
1 52161U 22033E   26131.78797693  .00008579  00000+0  14060-3 0  9996
2 52161  97.2736 223.5488 0003962 349.1608  10.9559 15.52707757230059
GLOBAL-18               
1 52196U 22034B   26131.84671841  .00014034  00000+0  30378-3 0  9991
2 52196  52.9814  70.1040 0005575 124.9513 235.2016 15.44748722231349
GAOFEN-3 03             
1 52200U 22035A   26131.87564384 -.00000130  00000+0 -26139-4 0  9999
2 52200  98.4080 140.9820 0001039  72.4343 287.6960 14.42218336215617
DAQI-1                  
1 52257U 22039A   26131.83294782  .00000076  00000+0  26502-4 0  9994
2 52257  98.1465  71.4402 0004274  26.8673 333.2747 14.57654907216649
BRO-6                   
1 52422U 22047AE  26131.84060567  .00022254  00000+0  42147-3 0  9994
2 52422  97.3394 222.2647 0005112 186.9458 173.1722 15.48363151225523
JILIN-1 GAOFEN 3D27     
1 52444U 22048B   26131.85651731  .00063438  00000+0  56778-3 0  9993
2 52444  97.5671 242.7413 0005467 172.8484 187.2856 15.68144549223770
JILIN-1 GAOFEN 3D28     
1 52445U 22048C   26131.84908223  .00071750  00000+0  58986-3 0  9993
2 52445  97.5610 242.7701 0004202 188.5200 171.5991 15.70198224223813
VIGORIDE-3              
1 52760U 22057AE  26131.84935127  .00003524  00000+0  13633-3 0  9990
2 52760  97.6549 270.8840 0007171 247.8748 112.1729 15.26890729219618
ION SCV-006             
1 52761U 22057AF  26131.37288838  .00006509  00000+0  14218-3 0  9995
2 52761  97.6052 278.2667 0016494 245.0567 114.8968 15.44426617220431
SHERPA-AC1              
1 52763U 22057AH  26131.84531778  .00004947  00000+0  14474-3 0  9991
2 52763  97.6635 279.5832 0006986 213.0868 146.9939 15.35741049220121
OMNI-L2                 
1 52771U 22057AR  26131.78113161  .00000799  00000+0  10848-3 0  9997
2 52771  97.4732 196.5848 0008357  86.8836 273.3334 14.81270211215009
STEP CUBE LAB-II        
1 52897U 22065D   26131.82578949  .00000521  00000+0  11038-3 0  9994
2 52897  98.2175 275.8506 0009524 133.1854 227.0145 14.63243569206184
RANDEV                  
1 52898U 22065E   26131.83644760  .00000614  00000+0  12739-3 0  9993
2 52898  98.2164 276.1967 0008818 133.0175 227.1767 14.63628968205931
SNUGLITE-II             
1 52899U 22065F   26131.67830529  .00000600  00000+0  12290-3 0  9993
2 52899  98.2153 276.5852 0008497 132.7383 227.4535 14.64277129205652
MIMAN                   
1 52900U 22065G   26131.63372433  .00000357  00000+0  81052-4 0  9999
2 52900  98.2210 274.3113 0008589 134.2653 225.9254 14.61801866205103
STARLINK-4362           
1 53043U 22077A   26131.64707103 -.00003742  00000+0 -25519-3 0  9996
2 53043  97.5036 311.9592 0001898  85.1194 275.0249 15.05670993210389
LARES-2                 
1 53105U 22080A   26127.16150228 -.00000008  00000+0  00000+0 0  9996
2 53105  70.1704 319.3995 0005357 343.8104  16.2342  6.38965197 89040
GREENCUBE (IO-117)      
1 53109U 22080E   26131.45410627 -.00000003  00000+0  00000+0 0  9994
2 53109  70.1441 311.0256 0008875 298.1354  61.8409  6.42583318 89707
STARLINK-4410           
1 53204U 22084R   26131.83335647 -.00023624  00000+0 -12403-2 0  9992
2 53204  97.6033 192.4380 0002096  50.0808 310.9094 15.15747560  5663
COSMOS 2558             
1 53323U 22089A   26131.85225197  .00056668  00000+0  49859-3 0  9997
2 53323  97.2245 234.6363 0002614 176.6646 183.4633 15.68604643212122
TECMS                   
1 53346U 22090A   26131.78708065  .00002237  00000+0  10266-3 0  9999
2 53346  97.3152 200.9223 0001854 349.3792  10.7405 15.21428870209278
DONGPO 02               
1 53452U 22098J   26131.87429670  .00059181  00000+0  52680-3 0  9993
2 53452  97.5464 260.1289 0002572 124.0879 236.0626 15.68309587209098
